GOES 19                 
1 60133U 24119A   26062.42894124 -.00000263  00000+0  00000+0 0  9990
2 60133   0.0138 313.0575 0000954  63.6038 223.7453  1.00272161  5905
FENGYUN 3H              
1 65815U 25219A   26062.41278564  .00000097  00000+0  66181-4 0  9998
2 65815  98.6678   5.2911 0001407  66.0165 294.1159 14.19930569 22377
