[{"OBJECT_NAME":"GOES 19","OBJECT_ID":"2024-119A","EPOCH":"2026-03-03T10:17:40.523136","MEAN_MOTION":1.00272161,"ECCENTRICITY":9.54e-5,"INCLINATION":0.0138,"RA_OF_ASC_NODE":313.0575,"ARG_OF_PERICENTER":63.6038,"MEAN_ANOMALY":223.7453,"EPHEMERIS_TYPE":0,"CLASSIFICATION_TYPE":"U","NORAD_CAT_ID":60133,"ELEMENT_SET_NO":999,"REV_AT_EPOCH":590,"BSTAR":0,"MEAN_MOTION_DOT":-2.63e-6,"MEAN_MOTION_DDOT":0},{"OBJECT_NAME":"FENGYUN 3H","OBJECT_ID":"2025-219A","EPOCH":"2026-03-03T09:54:24.679296","MEAN_MOTION":14.19930569,"ECCENTRICITY":0.0001407,"INCLINATION":98.6678,"RA_OF_ASC_NODE":5.2911,"ARG_OF_PERICENTER":66.0165,"MEAN_ANOMALY":294.1159,"EPHEMERIS_TYPE":0,"CLASSIFICATION_TYPE":"U","NORAD_CAT_ID":65815,"ELEMENT_SET_NO":999,"REV_AT_EPOCH":2237,"BSTAR":6.6181e-5,"MEAN_MOTION_DOT":9.7e-7,"MEAN_MOTION_DDOT":0}]
